#aV2013  1 27  0  0  0.00000000     288 DD+AD WGS84 FIT  NGA
## 1725      0.00000000   300.00000000 56319 0.0000000000000
+   31     1  2  3  4  5  6  7  8  9 10 11 12 13 14 15 16 17
+         18 19 20 21 22 23 24 25 26 28 29 30 31 32  0  0  0
+          0  0  0  0  0  0  0  0  0  0  0  0  0  0  0  0  0
+          0  0  0  0  0  0  0  0  0  0  0  0  0  0  0  0  0
+          0  0  0  0  0  0  0  0  0  0  0  0  0  0  0  0  0
++         2  2  2  2  2  2  2  2  2  2  2  2  2  2  2  2  2
++         2  2  2  2  2  2  2  2  2  2  2  2  2  2  2  0  0
++         0  0  0  0  0  0  0  0  0  0  0  0  0  0  0  0  0
++         0  0  0  0  0  0  0  0  0  0  0  0  0  0  0  0  0
++         0  0  0  0  0  0  0  0  0  0  0  0  0  0  0  0  0
%c cc cc ccc ccc cccc cccc cccc cccc ccccc ccccc ccccc ccccc
%c cc cc ccc ccc cccc cccc cccc cccc ccccc ccccc ccccc ccccc
%f  0.0000000  0.000000000  0.00000000000  0.000000000000000
%f  0.0000000  0.000000000  0.00000000000  0.000000000000000
%i    0    0    0    0      0      0      0      0         0
%i    0    0    0    0      0      0      0      0         0
/*      NGA, ST. LOUIS,MO.                                  
/*   EPHEMERIS COMPUTED FROM  1 DAYS OF DATA
/*   EPOCHA SMOOTHER  
/* CCCCCCCCCCCCCCCCCCCCCCCCCCCCCCCCCCCCCCCCCCCCCCCCCCCCCCCCC
*  2013  1 27  2 35  0.00000000                                                 
P  1 -11393.587682 -13689.300788 -19747.985795    295.980810                    
V  1  24992.176175  -1441.528850 -13368.097037      0.022997                    
P  2 -12263.084947  14152.029903  18811.535671    416.208304                    
V  2 -23829.747761  -1208.853071 -15275.784275      0.012886                    
P  3   7923.958880 -25143.966366  -2415.423911    160.243171                    
V  3   4478.487379   -936.260196  31092.968945      0.050389                    
P  4 -24264.122255   6682.931347   8651.735919    116.717205                    
V  4 -11362.428185  -2917.352461 -28398.440604      0.110731                    
P  5  -1049.153221  20942.190135  16185.386881   -380.692760                    
V  5 -12478.198826 -16666.729996  20853.957682     -0.019809                    
P  6  13594.927200 -22359.802726   3388.312298    373.720746                    
V  6   1484.735826   5436.372360  31120.539222     -0.140477                    
P  7 -24008.118733  -6693.552097   9624.717973    173.603325                    
V  7  12064.274052  -1787.139331  28700.816672      0.043819                    
P  8 -26781.623748  -1443.171198  -1758.624202      4.281968                    
V  8  -2196.856519  -1341.125463  32068.936316      0.002738                    
P  9  -5794.615377  14656.456531 -21921.154163    216.503118                    
V  9 -26495.788784     70.826929   7180.431251      0.026358                    
P 10 -14749.245476   5162.330076  21217.889710    -67.696820                    
V 10 -13493.177435 -24135.719010  -3050.372144     -0.014306                    
P 11  -5067.696630 -16173.876080 -20880.378913   -347.480317                    
V 11  24781.981153  -7513.636478     90.856561     -0.038089                    
P 12  11404.863135  23988.053059  -2433.994225    114.551236                    
V 12  -3176.268725  -1720.831204 -31897.933219      0.020478                    
P 13 -11409.361404  -9240.496711  21990.438646    149.457740                    
V 13  16281.264664 -23023.575777  -1328.978422     -0.028942                    
P 14  18967.644376  -9457.540014 -15725.993690    219.990748                    
V 14  -9708.805575  17968.172079 -22378.502111      0.003409                    
P 15  -1221.006255  22878.928729 -13239.499547   -106.396073                    
V 15 -10426.615027  13625.056548  24795.864005     -0.011951                    
P 16   2641.785956 -19755.887113  17375.943485   -252.047785                    
V 16  11681.999200  18885.903334  20007.444256     -0.002484                    
P 17 -18813.348675  11372.040009 -14527.420389     55.747433                    
V 17   8007.013890 -17250.193244 -23783.142999     -0.037131                    
P 18  19149.511889  11374.773899 -14339.367254    236.367973                    
V 18   7189.791884  17606.188399  22603.024698      0.018601                    
P 19   5824.441030 -22900.107845 -11783.517790   -343.347944                    
V 19  10664.576642 -10855.472044  26945.422518     -0.032855                    
P 20 -13348.399333 -22936.897689  -2043.032963     81.626073                    
V 20   4449.179330    -76.124423 -30820.852014      0.015196                    
P 21  25788.086312   4558.988419   6458.588597   -276.985755                    
V 21  -7405.742183   3095.364544  29329.396837     -0.022933                    
P 22  16702.602477  -1873.210785 -20405.733133    156.776207                    
V 22  12488.433350  23327.573610   7875.495776      0.009960                    
P 23  -5053.573703 -17839.919270  18931.041528    119.926949                    
V 23  13480.070692 -19992.124979 -15665.743473     -0.037712                    
P 24   7416.086735  14548.045995 -20953.350841     -0.019408                    
V 24 -26584.753426   1260.970481  -8505.562261     -0.006192                    
P 25  17588.799059  18088.881372   8397.892904     65.711316                    
V 25   3586.826236  10303.638885 -29496.475269      0.027168                    
P 26 -12280.881173  23020.755474  -4421.330470   -123.787041                    
V 26  -4716.937336   2658.063387  31776.024564      0.138568                    
P 28 -16740.079355  -3493.454788 -19797.084560    227.125983                    
V 28 -11338.961207 -23776.266163  13208.304828      0.035232                    
P 29  11757.739994   9666.401584  21822.797556    401.912697                    
V 29 -14794.429893  23254.090864  -2295.455290      0.038094                    
P 30   9783.805973 -11790.350725  21346.907441   -241.634936                    
V 30  16900.355432  22245.381963   4447.084450      0.105907                    
P 31  21406.234782  -8774.458394  13474.209015    299.582958                    
V 31  16644.780733   1681.635723 -25434.393236      0.018234                    
P 32  -5795.021095 -24960.903859  -7783.427757   -529.911992                    
V 32   6637.436840   7866.468106 -29084.513340     -0.035134                    
EOF
